STARLINK-35867          
1 66791U 25278A   25364.73435484  .00064410  00000+0  15338-2 0  9997
2 66791  42.9981 145.4939 0000980 277.0221  83.0524 15.40746132  4646
STARLINK-35990          
1 66792U 25278B   25365.50002315  .00057102  00000+0  13663-2 0  9996
2 66792  42.9992 140.6323 0001103 279.0318 199.3942 15.40649146  5979
STARLINK-36051          
1 66793U 25278C   25365.08295359  .00114938  00000+0  19338-2 0  9998
2 66793  42.9991 142.9422 0001315 280.8217  79.2496 15.50616131  4706
STARLINK-36062          
1 66794U 25278D   25365.50002315  .00028110  00000+0  67847-3 0  9999
2 66794  42.9994 140.8425 0001370 264.1273 127.3127 15.40665711  5971
STARLINK-36047          
1 66795U 25278E   25365.43850348  .00070925  00000+0  16885-2 0  9995
2 66795  42.9998 141.3148 0001648 267.0791  92.9877 15.40716561  4753
STARLINK-35964          
1 66796U 25278F   25365.41384573  .00462531  00000+0  21819-2 0  9997
2 66796  42.9897 136.6352 0001575 256.9844 103.0852 15.81022745  4803
STARLINK-36099          
1 66797U 25278G   25365.08123501  .00019600  00000+0  33492-3 0  9999
2 66797  43.0007 142.9275 0003725 284.2446  75.8001 15.50922712  4704
STARLINK-36041          
1 66798U 25278H   25363.85771902 -.00063248  00000+0 -10900-2 0  9994
2 66798  42.9995 150.0876 0001905 339.7317  20.3468 15.50343823  4518
STARLINK-36044          
1 66799U 25278J   25364.43708691  .00096905  00000+0  16334-2 0  9996
2 66799  42.9931 146.6922 0000783 196.1741 163.9094 15.50644729  4609
STARLINK-35996          
1 66800U 25278K   25364.43644155 -.00123734  00000+0 -21561-2 0  9994
2 66800  42.9972 146.6898 0001258 266.5706  93.5011 15.50326497  4606
STARLINK-36080          
1 66801U 25278L   25365.50002315  .00026676  00000+0  64450-3 0  9990
2 66801  42.9994 140.8096 0001015 290.4385 113.4718 15.40659291  5974
STARLINK-35604          
1 66802U 25278M   25365.46737981  .00140787  00000+0  23572-2 0  9999
2 66802  42.9991 140.6637 0001702 268.9892  91.0773 15.50644007  4765
