CCSDS_OMM_VERS = 2.0
CREATION_DATE  = 
ORIGINATOR     = 

OBJECT_NAME    = STARLINK-35867
OBJECT_ID      = 2025-278A
CENTER_NAME    = EARTH
REF_FRAME      = TEME
TIME_SYSTEM    = UTC
MEAN_ELEMENT_THEORY = SGP/SGP4

EPOCH          = 2025-12-30T17:37:28.258176
MEAN_MOTION    = 15.40746132
ECCENTRICITY   = .00009801
INCLINATION    = 42.9981
RA_OF_ASC_NODE = 145.4939
ARG_OF_PERICENTER = 277.0221
MEAN_ANOMALY   = 83.0524

EPHEMERIS_TYPE = 0
CLASSIFICATION_TYPE = U
NORAD_CAT_ID   = 66791
ELEMENT_SET_NO = 999
REV_AT_EPOCH   = 464
BSTAR          = .15338334E-2
MEAN_MOTION_DOT = .6441E-3
MEAN_MOTION_DDOT = 0

CCSDS_OMM_VERS = 2.0
CREATION_DATE  = 
ORIGINATOR     = 

OBJECT_NAME    = STARLINK-35990
OBJECT_ID      = 2025-278B
CENTER_NAME    = EARTH
REF_FRAME      = TEME
TIME_SYSTEM    = UTC
MEAN_ELEMENT_THEORY = SGP/SGP4

EPOCH          = 2025-12-31T12:00:02.000160
MEAN_MOTION    = 15.40649146
ECCENTRICITY   = .0001103
INCLINATION    = 42.9992
RA_OF_ASC_NODE = 140.6323
ARG_OF_PERICENTER = 279.0318
MEAN_ANOMALY   = 199.3942

EPHEMERIS_TYPE = 0
CLASSIFICATION_TYPE = U
NORAD_CAT_ID   = 66792
ELEMENT_SET_NO = 999
REV_AT_EPOCH   = 597
BSTAR          = .13663E-2
MEAN_MOTION_DOT = .57102E-3
MEAN_MOTION_DDOT = 0

CCSDS_OMM_VERS = 2.0
CREATION_DATE  = 
ORIGINATOR     = 

OBJECT_NAME    = STARLINK-36051
OBJECT_ID      = 2025-278C
CENTER_NAME    = EARTH
REF_FRAME      = TEME
TIME_SYSTEM    = UTC
MEAN_ELEMENT_THEORY = SGP/SGP4

EPOCH          = 2025-12-31T01:59:27.190176
MEAN_MOTION    = 15.50616131
ECCENTRICITY   = .00013155
INCLINATION    = 42.9991
RA_OF_ASC_NODE = 142.9422
ARG_OF_PERICENTER = 280.8217
MEAN_ANOMALY   = 79.2496

EPHEMERIS_TYPE = 0
CLASSIFICATION_TYPE = U
NORAD_CAT_ID   = 66793
ELEMENT_SET_NO = 999
REV_AT_EPOCH   = 470
BSTAR          = .19338245E-2
MEAN_MOTION_DOT = .114938E-2
MEAN_MOTION_DDOT = 0

CCSDS_OMM_VERS = 2.0
CREATION_DATE  = 
ORIGINATOR     = 

OBJECT_NAME    = STARLINK-36062
OBJECT_ID      = 2025-278D
CENTER_NAME    = EARTH
REF_FRAME      = TEME
TIME_SYSTEM    = UTC
MEAN_ELEMENT_THEORY = SGP/SGP4

EPOCH          = 2025-12-31T12:00:02.000160
MEAN_MOTION    = 15.40665711
ECCENTRICITY   = .000137
INCLINATION    = 42.9994
RA_OF_ASC_NODE = 140.8425
ARG_OF_PERICENTER = 264.1273
MEAN_ANOMALY   = 127.3127

EPHEMERIS_TYPE = 0
CLASSIFICATION_TYPE = U
NORAD_CAT_ID   = 66794
ELEMENT_SET_NO = 999
REV_AT_EPOCH   = 597
BSTAR          = .67847E-3
MEAN_MOTION_DOT = .2811E-3
MEAN_MOTION_DDOT = 0

CCSDS_OMM_VERS = 2.0
CREATION_DATE  = 
ORIGINATOR     = 

OBJECT_NAME    = STARLINK-36047
OBJECT_ID      = 2025-278E
CENTER_NAME    = EARTH
REF_FRAME      = TEME
TIME_SYSTEM    = UTC
MEAN_ELEMENT_THEORY = SGP/SGP4

EPOCH          = 2025-12-31T10:31:26.700672
MEAN_MOTION    = 15.40716561
ECCENTRICITY   = .0001648
INCLINATION    = 42.9998
RA_OF_ASC_NODE = 141.3148
ARG_OF_PERICENTER = 267.0791
MEAN_ANOMALY   = 92.9877

EPHEMERIS_TYPE = 0
CLASSIFICATION_TYPE = U
NORAD_CAT_ID   = 66795
ELEMENT_SET_NO = 999
REV_AT_EPOCH   = 475
BSTAR          = .16885E-2
MEAN_MOTION_DOT = .70925E-3
MEAN_MOTION_DDOT = 0

CCSDS_OMM_VERS = 2.0
CREATION_DATE  = 
ORIGINATOR     = 

OBJECT_NAME    = STARLINK-35964
OBJECT_ID      = 2025-278F
CENTER_NAME    = EARTH
REF_FRAME      = TEME
TIME_SYSTEM    = UTC
MEAN_ELEMENT_THEORY = SGP/SGP4

EPOCH          = 2025-12-31T09:55:56.271072
MEAN_MOTION    = 15.81022745
ECCENTRICITY   = .0001575
INCLINATION    = 42.9897
RA_OF_ASC_NODE = 136.6352
ARG_OF_PERICENTER = 256.9844
MEAN_ANOMALY   = 103.0852

EPHEMERIS_TYPE = 0
CLASSIFICATION_TYPE = U
NORAD_CAT_ID   = 66796
ELEMENT_SET_NO = 999
REV_AT_EPOCH   = 480
BSTAR          = .21819E-2
MEAN_MOTION_DOT = .462531E-2
MEAN_MOTION_DDOT = 0

CCSDS_OMM_VERS = 2.0
CREATION_DATE  = 
ORIGINATOR     = 

OBJECT_NAME    = STARLINK-36099
OBJECT_ID      = 2025-278G
CENTER_NAME    = EARTH
REF_FRAME      = TEME
TIME_SYSTEM    = UTC
MEAN_ELEMENT_THEORY = SGP/SGP4

EPOCH          = 2025-12-31T01:56:58.704864
MEAN_MOTION    = 15.50922712
ECCENTRICITY   = .0003725
INCLINATION    = 43.0007
RA_OF_ASC_NODE = 142.9275
ARG_OF_PERICENTER = 284.2446
MEAN_ANOMALY   = 75.8001

EPHEMERIS_TYPE = 0
CLASSIFICATION_TYPE = U
NORAD_CAT_ID   = 66797
ELEMENT_SET_NO = 999
REV_AT_EPOCH   = 470
BSTAR          = .33492179E-3
MEAN_MOTION_DOT = .196E-3
MEAN_MOTION_DDOT = 0

CCSDS_OMM_VERS = 2.0
CREATION_DATE  = 
ORIGINATOR     = 

OBJECT_NAME    = STARLINK-36041
OBJECT_ID      = 2025-278H
CENTER_NAME    = EARTH
REF_FRAME      = TEME
TIME_SYSTEM    = UTC
MEAN_ELEMENT_THEORY = SGP/SGP4

EPOCH          = 2025-12-29T20:35:06.923328
MEAN_MOTION    = 15.50343823
ECCENTRICITY   = .00019052
INCLINATION    = 42.9995
RA_OF_ASC_NODE = 150.0876
ARG_OF_PERICENTER = 339.7317
MEAN_ANOMALY   = 20.3468

EPHEMERIS_TYPE = 0
CLASSIFICATION_TYPE = U
NORAD_CAT_ID   = 66798
ELEMENT_SET_NO = 999
REV_AT_EPOCH   = 451
BSTAR          = -.10900491E-2
MEAN_MOTION_DOT = -.63248E-3
MEAN_MOTION_DDOT = 0

CCSDS_OMM_VERS = 2.0
CREATION_DATE  = 
ORIGINATOR     = 

OBJECT_NAME    = STARLINK-36044
OBJECT_ID      = 2025-278J
CENTER_NAME    = EARTH
REF_FRAME      = TEME
TIME_SYSTEM    = UTC
MEAN_ELEMENT_THEORY = SGP/SGP4

EPOCH          = 2025-12-30T10:29:24.309024
MEAN_MOTION    = 15.50644729
ECCENTRICITY   = .00007836
INCLINATION    = 42.9931
RA_OF_ASC_NODE = 146.6922
ARG_OF_PERICENTER = 196.1741
MEAN_ANOMALY   = 163.9094

EPHEMERIS_TYPE = 0
CLASSIFICATION_TYPE = U
NORAD_CAT_ID   = 66799
ELEMENT_SET_NO = 999
REV_AT_EPOCH   = 460
BSTAR          = .16334292E-2
MEAN_MOTION_DOT = .96905E-3
MEAN_MOTION_DDOT = 0

CCSDS_OMM_VERS = 2.0
CREATION_DATE  = 
ORIGINATOR     = 

OBJECT_NAME    = STARLINK-35996
OBJECT_ID      = 2025-278K
CENTER_NAME    = EARTH
REF_FRAME      = TEME
TIME_SYSTEM    = UTC
MEAN_ELEMENT_THEORY = SGP/SGP4

EPOCH          = 2025-12-30T10:28:28.549920
MEAN_MOTION    = 15.50326497
ECCENTRICITY   = .00012585
INCLINATION    = 42.9972
RA_OF_ASC_NODE = 146.6898
ARG_OF_PERICENTER = 266.5706
MEAN_ANOMALY   = 93.5011

EPHEMERIS_TYPE = 0
CLASSIFICATION_TYPE = U
NORAD_CAT_ID   = 66800
ELEMENT_SET_NO = 999
REV_AT_EPOCH   = 460
BSTAR          = -.21561105E-2
MEAN_MOTION_DOT = -.123734E-2
MEAN_MOTION_DDOT = 0

CCSDS_OMM_VERS = 2.0
CREATION_DATE  = 
ORIGINATOR     = 

OBJECT_NAME    = STARLINK-36080
OBJECT_ID      = 2025-278L
CENTER_NAME    = EARTH
REF_FRAME      = TEME
TIME_SYSTEM    = UTC
MEAN_ELEMENT_THEORY = SGP/SGP4

EPOCH          = 2025-12-31T12:00:02.000160
MEAN_MOTION    = 15.40659291
ECCENTRICITY   = .0001015
INCLINATION    = 42.9994
RA_OF_ASC_NODE = 140.8096
ARG_OF_PERICENTER = 290.4385
MEAN_ANOMALY   = 113.4718

EPHEMERIS_TYPE = 0
CLASSIFICATION_TYPE = U
NORAD_CAT_ID   = 66801
ELEMENT_SET_NO = 999
REV_AT_EPOCH   = 597
BSTAR          = .6445E-3
MEAN_MOTION_DOT = .26676E-3
MEAN_MOTION_DDOT = 0

CCSDS_OMM_VERS = 2.0
CREATION_DATE  = 
ORIGINATOR     = 

OBJECT_NAME    = STARLINK-35604
OBJECT_ID      = 2025-278M
CENTER_NAME    = EARTH
REF_FRAME      = TEME
TIME_SYSTEM    = UTC
MEAN_ELEMENT_THEORY = SGP/SGP4

EPOCH          = 2025-12-31T11:13:01.615584
MEAN_MOTION    = 15.50644007
ECCENTRICITY   = .0001702
INCLINATION    = 42.9991
RA_OF_ASC_NODE = 140.6637
ARG_OF_PERICENTER = 268.9892
MEAN_ANOMALY   = 91.0773

EPHEMERIS_TYPE = 0
CLASSIFICATION_TYPE = U
NORAD_CAT_ID   = 66802
ELEMENT_SET_NO = 999
REV_AT_EPOCH   = 476
BSTAR          = .23572E-2
MEAN_MOTION_DOT = .140787E-2
MEAN_MOTION_DDOT = 0

